ONEWEB-0456             
1 51646U 22012AA  23339.19550917 -.00000529  00000+0 -15517-2 0  9994
2 51646  87.8920 219.9648 0001283  89.9304 270.1971 13.10374767 88208
ONEWEB-0457             
1 51647U 22012AB  23339.17276247  .00006992  00000+0  19976-1 0  9994
2 51647  87.8876 219.9765 0003915  61.5282 298.6239 13.10382565 88201
ONEWEB-0458             
1 51648U 22012AC  23339.19390430  .00000487  00000+0  13589-2 0  9996
2 51648  87.8926 219.9846 0001362  66.5128 293.6142 13.10378761 88162
ONEWEB-0461             
1 51649U 22012AD  23339.55281316 -.00000568  00000+0 -14972-2 0  9998
2 51649  87.9208 189.6805 0001613  78.8080 281.3232 13.17648177 92120
ONEWEB-0463             
1 51650U 22012AE  23339.53593124  .00002722  00000+0  69715-2 0  9998
2 51650  87.9190 189.7222 0003499  67.4734 292.6767 13.17673471 91908
ONEWEB-0464             
1 51651U 22012AF  23339.19065851  .00001157  00000+0  32770-2 0  9994
2 51651  87.8931 219.9734 0001242  71.2210 288.9052 13.10372895 88181
ONEWEB-0468             
1 51652U 22012AG  23339.19713683 -.00000897  00000+0 -26067-2 0  9992
2 51652  87.8929 219.9651 0001293  72.5915 287.5353 13.10370414 88161
ONEWEB-0473             
1 51653U 22012AH  23339.18252578 -.00000055  00000+0 -19386-3 0  9996
2 51653  87.8928 219.9725 0001317  72.0912 288.0359 13.10377613 88162
